*******************************************************************************
 Revised: Sep 12, 1996              Mercury                             199 / 1

 GEOPHYSICAL DATA (updated 2008-Feb-07):
  Mean radius (km)      =  2440(+-1)     Density (g cm^-3)     =  5.427
  Mass (10^23 kg )      =     3.302      Flattening, f         =  
  Volume (x10^10 km^3)  =     6.085      Semi-major axis       = 
  Sidereal rot. period  =    58.6462 d   Rot. Rate (x10^5 s)   =  0.124001
  Mean solar day        =   175.9421 d   Polar gravity ms^-2   =
  Mom. of Inertia       =     0.33       Equ. gravity  ms^-2   =  3.701     
  Core radius (km)      = ~1600          Potential Love # k2   =

  GM (km^3 s^-2)        = 22032.09       Equatorial Radius, Re =    2440 km
  GM 1-sigma (km^3 s^-2)=   +-0.91       Mass ratio (sun/plnt) = 6023600
 
  Atmos. pressure (bar) =                Max. angular diam.    = 11.0"   
  Mean Temperature (K)  =                Visual mag. V(1,0)    = -0.42 
  Geometric albedo      =   0.106        Obliquity to orbit[1] = 2.11' +/- 0.1'  
  Sidereal orb. per.    =   0.2408467 y  Orbit vel.  km/s      = 47.8725
  Sidereal orb. per.    =  87.969257  d  Escape vel. km/s      =  4.435
  Hill's sphere rad. Rp =  94.4          Planetary Solar Const = 9936.9 (Wm^2)

[1] Margot et al., Science 316, 2007
*******************************************************************************
 
 
*******************************************************************************
Ephemeris / WWW_USER Sat May  7 04:41:54 2011  Pasadena, USA     / Horizons    
*******************************************************************************
Target body name: Mercury (199)                   {source: DE405}
Center body name: Earth (399)                     {source: DE405}
Center-site name: GEOCENTRIC
*******************************************************************************
Start time      : A.D. 2011-Apr-18 00:00:00.0000 UT      
Stop  time      : A.D. 2020-May-18 00:00:00.0000 UT      
Step-size       : 1440 minutes
*******************************************************************************
Target pole/equ : IAU_MERCURY                     {East-longitude -}
Target radii    : 2439.7 x 2439.7 x 2439.7 km     {Equator, meridian, pole}    
Center geodetic : 0.00000000,0.00000000,0.0000000 {E-lon(deg),Lat(deg),Alt(km)}
Center cylindric: 0.00000000,0.00000000,0.0000000 {E-lon(deg),Dxy(km),Dz(km)}
Center pole/equ : High-precision EOP model        {East-longitude +}
Center radii    : 6378.1 x 6378.1 x 6356.8 km     {Equator, meridian, pole}    
Target primary  : Sun                             {source: DE405+DE406}
Interfering body: MOON (Req= 1737.400) km         {source: DE405}
Deflecting body : Sun, EARTH                      {source: DE405}
Deflecting GMs  : 1.3271E+11, 3.9860E+05 km^3/s^2                              
Atmos refraction: NO (AIRLESS)
RA format       : HMS
Time format     : CAL 
EOP file        : eop.110506.p110728                                           
EOP coverage    : DATA-BASED 1962-JAN-20 TO 2011-MAY-06. PREDICTS-> 2011-JUL-27
Units conversion: 1 AU= 149597870.691 km, c= 299792.458 km/s, 1 day= 86400.0 s 
Table cut-offs 1: Elevation (-90.0deg=NO ),Airmass (>38.000=NO), Daylight (NO )
Table cut-offs 2: Solar Elongation (  0.0,180.0=NO )                           
*************************************************************************************************
 Date__(UT)__HR:MN     R.A._(ICRF/J2000.0)_DEC R.A.__(a-apparent)__DEC  APmag  S-brt   Illu% Cnst
*************************************************************************************************
$$SOE
 2020-Apr-06 00:00     23 33 57.27 -05 28 02.4 23 34 57.61 -05 21 33.0  -0.08   3.22  69.590  Aqr
 2020-Apr-07 00:00     23 39 22.31 -04 55 18.1 23 40 22.57 -04 48 47.8  -0.11   3.19  70.777  Aqr
 2020-Apr-08 00:00     23 44 52.22 -04 21 22.5 23 45 52.40 -04 14 51.5  -0.13   3.15  71.958  Aqr
 2020-Apr-09 00:00     23 50 26.95 -03 46 17.2 23 51 27.07 -03 39 45.7  -0.16   3.12  73.136  Aqr
 2020-Apr-10 00:00     23 56 06.51 -03 10 03.6 23 57 06.58 -03 03 31.9  -0.19   3.08  74.314  Psc
 2020-Apr-11 00:00     00 01 50.89 -02 32 43.2 00 02 50.94 -02 26 11.4  -0.22   3.04  75.494  Psc
 2020-Apr-12 00:00     00 07 40.15 -01 54 17.5 00 08 40.18 -01 47 45.9  -0.26   3.00  76.677  Psc
 2020-Apr-13 00:00     00 13 34.34 -01 14 48.1 00 14 34.38 -01 08 17.0  -0.30   2.96  77.864  Psc
 2020-Apr-14 00:00     00 19 33.55 -00 34 16.6 00 20 33.62 -00 27 46.2  -0.34   2.91  79.059  Psc
 2020-Apr-15 00:00     00 25 37.90 +00 07 15.3 00 26 38.00 +00 13 44.8  -0.38   2.86  80.260  Psc
 2020-Apr-16 00:00     00 31 47.50 +00 49 45.9 00 32 47.65 +00 56 14.0  -0.43   2.81  81.470  Cet
 2020-Apr-17 00:00     00 38 02.51 +01 33 13.1 00 39 02.73 +01 39 39.6  -0.48   2.76  82.687  Cet
 2020-Apr-18 00:00     00 44 23.10 +02 17 35.1 00 45 23.41 +02 23 59.6  -0.53   2.70  83.913  Cet
 2020-Apr-19 00:00     00 50 49.45 +03 02 49.4 00 51 49.86 +03 09 11.6  -0.59   2.64  85.144  Psc
 2020-Apr-20 00:00     00 57 21.76 +03 48 53.8 00 58 22.29 +03 55 13.3  -0.65   2.58  86.381  Psc
 2020-Apr-21 00:00     01 04 00.24 +04 35 45.4 01 05 00.92 +04 42 01.9  -0.72   2.51  87.620  Psc
 2020-Apr-22 00:00     01 10 45.12 +05 23 21.3 01 11 45.97 +05 29 34.3  -0.79   2.44  88.857  Psc
 2020-Apr-23 00:00     01 17 36.62 +06 11 38.0 01 18 37.67 +06 17 47.3  -0.87   2.36  90.086  Psc
 2020-Apr-24 00:00     01 24 34.97 +07 00 32.0 01 25 36.24 +07 06 37.1  -0.95   2.28  91.303  Psc
 2020-Apr-25 00:00     01 31 40.39 +07 49 58.8 01 32 41.91 +07 55 59.3  -1.04   2.19  92.497  Psc
 2020-Apr-26 00:00     01 38 53.09 +08 39 53.8 01 39 54.88 +08 45 49.3  -1.14   2.09  93.659  Psc
 2020-Apr-27 00:00     01 46 13.26 +09 30 11.6 01 47 15.35 +09 36 01.6  -1.24   1.99  94.777  Psc
 2020-Apr-28 00:00     01 53 41.04 +10 20 46.0 01 54 43.46 +10 26 30.2  -1.36   1.88  95.837  Psc
 2020-Apr-29 00:00     02 01 16.55 +11 11 30.4 02 02 19.32 +11 17 08.3  -1.48   1.76  96.821  Ari
 2020-Apr-30 00:00     02 08 59.85 +12 02 17.2 02 10 02.99 +12 07 48.2  -1.62   1.62  97.712  Ari
 2020-May-01 00:00     02 16 50.91 +12 52 58.0 02 17 54.45 +12 58 21.7  -1.77   1.48  98.489  Ari
 2020-May-02 00:00     02 24 49.63 +13 43 23.6 02 25 53.60 +13 48 39.4  -1.93   1.32  99.129  Ari
 2020-May-03 00:00     02 32 55.82 +14 33 24.0 02 34 00.22 +14 38 31.4  -2.11   1.15  99.609  Ari
 2020-May-04 00:00     02 41 09.16 +15 22 48.2 02 42 14.01 +15 27 46.7  -2.30   0.96  99.907  Ari
 2020-May-05 00:00     02 49 29.21 +16 11 25.0 02 50 34.53 +16 16 14.1   n.a.   n.a.  99.998  Ari
 2020-May-06 00:00     02 57 55.39 +16 59 02.2 02 59 01.20 +17 03 41.4  -2.32   0.96  99.864  Ari
 2020-May-07 00:00     03 06 26.99 +17 45 27.6 03 07 33.30 +17 49 56.3  -2.16   1.11  99.487  Ari
 2020-May-08 00:00     03 15 03.17 +18 30 28.7 03 16 09.99 +18 34 46.5  -2.02   1.26  98.854  Ari
 2020-May-09 00:00     03 23 42.95 +19 13 53.4 03 24 50.28 +19 17 59.8  -1.89   1.40  97.958  Ari
 2020-May-10 00:00     03 32 25.23 +19 55 30.0 03 33 33.09 +19 59 24.7  -1.76   1.53  96.800  Tau
 2020-May-11 00:00     03 41 08.85 +20 35 07.6 03 42 17.21 +20 38 50.2  -1.64   1.65  95.387  Tau
 2020-May-12 00:00     03 49 52.53 +21 12 36.3 03 51 01.40 +21 16 06.5  -1.53   1.76  93.731  Tau
 2020-May-13 00:00     03 58 35.00 +21 47 47.6 03 59 44.36 +21 51 05.2  -1.42   1.87  91.852  Tau
 2020-May-14 00:00     04 07 14.96 +22 20 34.6 04 08 24.78 +22 23 39.3  -1.32   1.97  89.775  Tau
 2020-May-15 00:00     04 15 51.10 +22 50 51.9 04 17 01.36 +22 53 43.4  -1.23   2.06  87.526  Tau
 2020-May-16 00:00     04 24 22.19 +23 18 35.6 04 25 32.87 +23 21 13.9  -1.14   2.15  85.135  Tau
 2020-May-17 00:00     04 32 47.03 +23 43 43.6 04 33 58.09 +23 46 08.7  -1.05   2.24  82.632  Tau
 2020-May-18 00:00     04 41 04.52 +24 06 15.2 04 42 15.93 +24 08 27.0  -0.97   2.32  80.045  Tau
